IRIDIUM 26              
1 24903U 97043A   26012.95707358  .00000350  00000+0  11068-3 0  9992
2 24903  86.3945  22.4359 0002396  91.8473 268.2999 14.37356547486875
IRIDIUM 22              
1 24907U 97043E   26012.78294174  .00000326  00000+0  10518-3 0  9996
2 24907  86.3945  26.2291 0002278  87.7083 272.4375 14.36146760486852
DUMMY MASS 1            
1 24925U 97048A   26012.62232592  .00000380  00000+0  38994-4 0  9999
2 24925  86.3321  38.4085 0008713 114.9717 245.2414 14.87212765536250
DUMMY MASS 2            
1 24926U 97048B   26012.82136684  .00000365  00000+0  37566-4 0  9994
2 24926  86.3320  39.9628 0009216 124.4780 235.7316 14.86963225536050
IRIDIUM 29              
1 24944U 97051A   26012.86864567  .00000270  00000+0  84900-4 0  9999
2 24944  86.3925  55.8676 0002089  89.0125 271.1312 14.36689708483373
IRIDIUM 33              
1 24946U 97051C   26012.87499158  .00000252  00000+0  81312-4 0  9996
2 24946  86.3840  55.1469 0009929 109.0635 251.1637 14.35061492482812
IRIDIUM 28              
1 24948U 97051E   26012.84938590  .00000294  00000+0  91472-4 0  9997
2 24948  86.3930  53.2718 0002731  96.6681 263.4828 14.37590722483966
IRIDIUM 36              
1 24967U 97056C   26012.91924685  .00000324  00000+0  10106-3 0  9999
2 24967  86.3946  84.8732 0002426  92.3575 267.7900 14.37816416482357
